QIANFAN-81              
1 63167U 25046J   25345.22995277  .00000206  00000+0  29947-3 0  9993
2 63167  88.9762 320.0281 0016189 120.5969 239.6781 13.51001932 47280
QIANFAN-82              
1 63168U 25046K   25345.26397323  .00000183  00000+0  26447-3 0  9992
2 63168  88.9762 320.0684 0014161 126.9632 233.2818 13.50975328 47271
QIANFAN-83              
1 63169U 25046L   25345.30302147  .00000214  00000+0  26218-3 0  9999
2 63169  88.9762 319.8436 0015794 114.0942 246.1869 13.61973889 47404
QIANFAN-84              
1 63170U 25046M   25345.21772478  .00000155  00000+0  22069-3 0  9993
2 63170  88.9761 320.2059 0017192 124.9018 235.3752 13.50986441 47193
QIANFAN-85              
1 63171U 25046N   25345.21447231  .00000215  00000+0  31349-3 0  9998
2 63171  88.9761 320.0780 0014537 126.1701 234.0797 13.50975940 47261
QIANFAN-86              
1 63172U 25046P   25345.22279990  .00000202  00000+0  29465-3 0  9997
2 63172  88.9763 319.9392 0012332 128.9960 231.2291 13.50975730 47342
QIANFAN-87              
1 63173U 25046Q   25345.26819182  .00000187  00000+0  27070-3 0  9997
2 63173  88.9759 320.0463 0013090 124.9971 235.2411 13.50973824 47283
QIANFAN-88              
1 63174U 25046R   25345.21046317  .00000194  00000+0  28188-3 0  9994
2 63174  88.9762 320.0067 0013291 132.5845 227.6430 13.50980228 47301
